{"type": "FeatureCollection", "features": [ {"type": "Feature", "properties": {"norad_id": 40697, "name": "SENTINEL-2A", "group": "resource", "lat": 52.11419194352354, "lon": -108.5250340214804, "alt_km": 783.5320927452212, "timestamp": "2025-12-13T18:50:04.085627+00:00", "meta": {"OBJECT_NAME": "SENTINEL-2A", "OBJECT_ID": "2015-028A", "EPOCH": "2025-12-13T06:29:41.447904", "MEAN_MOTION": 14.30813641, "ECCENTRICITY": 0.00010836, "INCLINATION": 98.5687, "RA_OF_ASC_NODE": 59.795, "ARG_OF_PERICENTER": 88.8615, "MEAN_ANOMALY": 271.2692, "EPHEMERIS_TYPE": 0, "CLASSIFICATION_TYPE": "U", "NORAD_CAT_ID": 40697, "ELEMENT_SET_NO": 999, "REV_AT_EPOCH": 54714, "BSTAR": 0.00012308935, "MEAN_MOTION_DOT": 2.79e-06, "MEAN_MOTION_DDOT": 0}, "tle": {"line1": "1 40697U 15028A   25347.27061861  .00000279  00000+0  12309-3 0  9999", "line2": "2 40697  98.5687  59.7950 0001083  88.8615 271.2692 14.30813641547145"}}, "geometry": {"type": "Point", "coordinates": [-108.5250340214804, 52.11419194352354]}}, {"type": "Feature", "properties": {"norad_id": 40701, "name": "GAOFEN-8", "group": "resource", "lat": -38.28269398507266, "lon": -20.147583205908763, "alt_km": 455.9645349470111, "timestamp": "2025-12-13T18:50:04.085638+00:00", "meta": {"OBJECT_NAME": "GAOFEN-8", "OBJECT_ID": "2015-030A", "EPOCH": "2025-12-13T06:57:43.406208", "MEAN_MOTION": 15.38571365, "ECCENTRICITY": 0.00117502, "INCLINATION": 97.6913, "RA_OF_ASC_NODE": 165.4569, "ARG_OF_PERICENTER": 135.9889, "MEAN_ANOMALY": 224.2293, "EPHEMERIS_TYPE": 0, "CLASSIFICATION_TYPE": "U", "NORAD_CAT_ID": 40701, "ELEMENT_SET_NO": 999, "REV_AT_EPOCH": 58279, "BSTAR": 0.00068645095, "MEAN_MOTION_DOT": 0.00026169, "MEAN_MOTION_DDOT": 0}, "tle": {"line1": "1 40701U 15030A   25347.29008572  .00026169  00000+0  68645-3 0  9990", "line2": "2 40701  97.6913 165.4569 0011750 135.9889 224.2293 15.38571365582791"}}, "geometry": {"type": "Point", "coordinates": [-20.147583205908763, -38.28269398507266]}}, {"type": "Feature", "properties": {"norad_id": 40718, "name": "CARBONITE 1 (CBNT-1)", "group": "resource", "lat": -58.90310277937958, "lon": -178.35835791435235, "alt_km": 633.2248151835092, "timestamp": "2025-12-13T18:50:04.085648+00:00", "meta": {"OBJECT_NAME": "CARBONITE 1 (CBNT-1)", "OBJECT_ID": "2015-032D", "EPOCH": "2025-12-13T07:46:01.143840", "MEAN_MOTION": 14.8274969, "ECCENTRICITY": 0.00145154, "INCLINATION": 97.6405, "RA_OF_ASC_NODE": 168.3417, "ARG_OF_PERICENTER": 179.3655, "MEAN_ANOMALY": 180.758, "EPHEMERIS_TYPE": 0, "CLASSIFICATION_TYPE": "U", "NORAD_CAT_ID": 40718, "ELEMENT_SET_NO": 999, "REV_AT_EPOCH": 56179, "BSTAR": 0.00052840777, "MEAN_MOTION_DOT": 4.227e-05, "MEAN_MOTION_DDOT": 0}, "tle": {"line1": "1 40718U 15032D   25347.32362435  .00004227  00000+0  52841-3 0  9997", "line2": "2 40718  97.6405 168.3417 0014515 179.3655 180.7580 14.82749690561792"}}, "geometry": {"type": "Point", "coordinates": [-178.35835791435235, -58.90310277937958]}}, {"type": "Feature", "properties": {"norad_id": 40878, "name": "YAOGAN-27", "group": "resource", "lat": 79.61930328559308, "lon": -125.95968264987711, "alt_km": 1198.0255387463176, "timestamp": "2025-12-13T18:50:04.085659+00:00", "meta": {"OBJECT_NAME": "YAOGAN-27", "OBJECT_ID": "2015-040A", "EPOCH": "2025-12-13T07:25:10.063200", "MEAN_MOTION": 13.16060664, "ECCENTRICITY": 0.00076382, "INCLINATION": 100.1017, "RA_OF_ASC_NODE": 336.9033, "ARG_OF_PERICENTER": 285.4931, "MEAN_ANOMALY": 74.5339, "EPHEMERIS_TYPE": 0, "CLASSIFICATION_TYPE": "U", "NORAD_CAT_ID": 40878, "ELEMENT_SET_NO": 999, "REV_AT_EPOCH": 49321, "BSTAR": -0.0001856682, "MEAN_MOTION_DOT": -1.13e-06, "MEAN_MOTION_DDOT": 0}, "tle": {"line1": "1 40878U 15040A   25347.30914425 -.00000113  00000+0 -18567-3 0  9992", "line2": "2 40878 100.1017 336.9033 0007638 285.4931  74.5339 13.16060664493215"}}, "geometry": {"type": "Point", "coordinates": [-125.95968264987711, 79.61930328559308]}}, {"type": "Feature", "properties": {"norad_id": 40894, "name": "GAOFEN-9 01", "group": "resource", "lat": -39.38367276881267, "lon": -159.64355159111872, "alt_km": 647.7958070352179, "timestamp": "2025-12-13T18:50:04.085670+00:00", "meta": {"OBJECT_NAME": "GAOFEN-9 01", "OBJECT_ID": "2015-047A", "EPOCH": "2025-12-13T06:30:25.828128", "MEAN_MOTION": 14.82425421, "ECCENTRICITY": 0.00283371, "INCLINATION": 97.6546, "RA_OF_ASC_NODE": 26.2037, "ARG_OF_PERICENTER": 32.6574, "MEAN_ANOMALY": 327.6385, "EPHEMERIS_TYPE": 0, "CLASSIFICATION_TYPE": "U", "NORAD_CAT_ID": 40894, "ELEMENT_SET_NO": 999, "REV_AT_EPOCH": 55264, "BSTAR": 0.00026692941, "MEAN_MOTION_DOT": 2.103e-05, "MEAN_MOTION_DDOT": 0}, "tle": {"line1": "1 40894U 15047A   25347.27113227  .00002103  00000+0  26693-3 0  9992", "line2": "2 40894  97.6546  26.2037 0028337  32.6574 327.6385 14.82425421552643"}}, "geometry": {"type": "Point", "coordinates": [-159.64355159111872, -39.38367276881267]}}, {"type": "Feature", "properties": {"norad_id": 41026, "name": "YAOGAN-28", "group": "resource", "lat": 11.021154439488548, "lon": -53.02613479159077, "alt_km": 488.29630341001575, "timestamp": "2025-12-13T18:50:04.085681+00:00", "meta": {"OBJECT_NAME": "YAOGAN-28", "OBJECT_ID": "2015-064A", "EPOCH": "2025-12-13T07:04:09.953760", "MEAN_MOTION": 15.24371151, "ECCENTRICITY": 0.00124017, "INCLINATION": 97.2801, "RA_OF_ASC_NODE": 125.0709, "ARG_OF_PERICENTER": 124.1344, "MEAN_ANOMALY": 236.1072, "EPHEMERIS_TYPE": 0, "CLASSIFICATION_TYPE": "U", "NORAD_CAT_ID": 41026, "ELEMENT_SET_NO": 999, "REV_AT_EPOCH": 56233, "BSTAR": 0.00060657249, "MEAN_MOTION_DOT": 0.00014833, "MEAN_MOTION_DDOT": 0}, "tle": {"line1": "1 41026U 15064A   25347.29455965  .00014833  00000+0  60657-3 0  9990", "line2": "2 41026  97.2801 125.0709 0012401 124.1344 236.1072 15.24371151562333"}}, "geometry": {"type": "Point", "coordinates": [-53.02613479159077, 11.021154439488548]}}, {"type": "Feature", "properties": {"norad_id": 41038, "name": "YAOGAN-29", "group": "resource", "lat": 69.08615305708496, "lon": -147.38294825389895, "alt_km": 613.634859275634, "timestamp": "2025-12-13T18:50:04.085691+00:00", "meta": {"OBJECT_NAME": "YAOGAN-29", "OBJECT_ID": "2015-069A", "EPOCH": "2025-12-13T07:00:25.109856", "MEAN_MOTION": 14.8288385, "ECCENTRICITY": 1.598e-05, "INCLINATION": 98.0222, "RA_OF_ASC_NODE": 10.4652, "ARG_OF_PERICENTER": 298.1806, "MEAN_ANOMALY": 61.9391, "EPHEMERIS_TYPE": 0, "CLASSIFICATION_TYPE": "U", "NORAD_CAT_ID": 41038, "ELEMENT_SET_NO": 999, "REV_AT_EPOCH": 54307, "BSTAR": 0.00013742591, "MEAN_MOTION_DOT": 1.059e-05, "MEAN_MOTION_DDOT": 0}, "tle": {"line1": "1 41038U 15069A   25347.29195729  .00001059  00000+0  13743-3 0  9997", "line2": "2 41038  98.0222  10.4652 0000159 298.1806  61.9391 14.82883850543073"}}, "geometry": {"type": "Point", "coordinates": [-147.38294825389895, 69.08615305708496]}}, {"type": "Feature", "properties": {"norad_id": 41167, "name": "KENT RIDGE 1", "group": "resource", "lat": 6.043689172791839, "lon": 0.06611653637954511, "alt_km": 491.52657535671915, "timestamp": "2025-12-13T18:50:04.085702+00:00", "meta": {"OBJECT_NAME": "KENT RIDGE 1", "OBJECT_ID": "2015-077B", "EPOCH": "2025-12-12T23:16:30.783072", "MEAN_MOTION": 15.21639218, "ECCENTRICITY": 0.00085187, "INCLINATION": 14.9786, "RA_OF_ASC_NODE": 209.434, "ARG_OF_PERICENTER": 133.9708, "MEAN_ANOMALY": 226.1317, "EPHEMERIS_TYPE": 0, "CLASSIFICATION_TYPE": "U", "NORAD_CAT_ID": 41167, "ELEMENT_SET_NO": 999, "REV_AT_EPOCH": 55267, "BSTAR": 0.00025287461, "MEAN_MOTION_DOT": 6.651e-05, "MEAN_MOTION_DDOT": 0}, "tle": {"line1": "1 41167U 15077B   25346.96980073  .00006651  00000+0  25287-3 0  9995", "line2": "2 41167  14.9786 209.4340 0008518 133.9708 226.1317 15.21639218552676"}}, "geometry": {"type": "Point", "coordinates": [0.06611653637954511, 6.043689172791839]}}, {"type": "Feature", "properties": {"norad_id": 41194, "name": "GAOFEN-4", "group": "resource", "lat": 0.0993614032157007, "lon": 110.8657957334118, "alt_km": 35783.31351928998, "timestamp": "2025-12-13T18:50:04.085715+00:00", "meta": {"OBJECT_NAME": "GAOFEN-4", "OBJECT_ID": "2015-083A", "EPOCH": "2025-12-13T01:58:07.760064", "MEAN_MOTION": 1.00269408, "ECCENTRICITY": 0.00034354, "INCLINATION": 0.1714, "RA_OF_ASC_NODE": 81.1659, "ARG_OF_PERICENTER": 105.4224, "MEAN_ANOMALY": 30.6527, "EPHEMERIS_TYPE": 0, "CLASSIFICATION_TYPE": "U", "NORAD_CAT_ID": 41194, "ELEMENT_SET_NO": 999, "REV_AT_EPOCH": 3666, "BSTAR": 0, "MEAN_MOTION_DOT": -3.21e-06, "MEAN_MOTION_DDOT": 0}, "tle": {"line1": "1 41194U 15083A   25347.08203426 -.00000321  00000+0  00000+0 0  9997", "line2": "2 41194   0.1714  81.1659 0003435 105.4224  30.6527  1.00269408 36661"}}, "geometry": {"type": "Point", "coordinates": [110.8657957334118, 0.0993614032157007]}}, {"type": "Feature", "properties": {"norad_id": 41240, "name": "JASON-3", "group": "resource", "lat": 55.77539436069202, "lon": -65.19353263639701, "alt_km": 1309.7276046747402, "timestamp": "2025-12-13T18:50:04.085727+00:00", "meta": {"OBJECT_NAME": "JASON-3", "OBJECT_ID": "2016-002A", "EPOCH": "2025-12-13T07:03:13.235616", "MEAN_MOTION": 12.87626562, "ECCENTRICITY": 0.00071375, "INCLINATION": 66.039, "RA_OF_ASC_NODE": 156.6591, "ARG_OF_PERICENTER": 270.8614, "MEAN_ANOMALY": 89.1587, "EPHEMERIS_TYPE": 0, "CLASSIFICATION_TYPE": "U", "NORAD_CAT_ID": 41240, "ELEMENT_SET_NO": 999, "REV_AT_EPOCH": 46331, "BSTAR": 0.00015889661, "MEAN_MOTION_DOT": -2.2e-07, "MEAN_MOTION_DDOT": 0}, "tle": {"line1": "1 41240U 16002A   25347.29390319 -.00000022  00000+0  15890-3 0  9997", "line2": "2 41240  66.0390 156.6591 0007137 270.8614  89.1587 12.87626562463316"}}, "geometry": {"type": "Point", "coordinates": [-65.19353263639701, 55.77539436069202]}}]}